ONEWEB-0319             
1 49105U 21075AG  25162.75676524  .00000063  00000+0  12780-3 0  9991
2 49105  87.9070  79.6363 0001990  65.6203 294.5136 13.17648032184825
ONEWEB-0323             
1 49106U 21075AH  25162.75677265 -.00000312  00000+0 -90177-3 0  9990
2 49106  87.8884  64.3250 0002033  57.2193 302.9131 13.12441953185961
ONEWEB-0329             
1 49107U 21075AJ  25162.76520052  .00000070  00000+0  14683-3 0  9990
2 49107  87.9071  79.6393 0002071  71.9954 288.1403 13.17651661184801
ONEWEB-0330             
1 49108U 21075AK  25162.76689088  .00000046  00000+0  84387-4 0  9998
2 49108  87.9070  79.6416 0002184  75.6877 284.4497 13.17650151184846
ONEWEB-0292             
1 49186U 21083A   25162.94244452  .00000382  00000+0  10118-2 0  9997
2 49186  87.8975  33.8413 0001730  77.3364 282.7958 13.13469202182325
ONEWEB-0303             
1 49187U 21083B   25162.72412576  .00000086  00000+0  18548-3 0  9995
2 49187  87.9151  49.0761 0001807  73.4297 286.7033 13.18687156181158
ONEWEB-0306             
1 49188U 21083C   25162.94227233  .00000055  00000+0  10718-3 0  9991
2 49188  87.9153  49.0176 0001959  84.6523 275.4832 13.18686260181220
ONEWEB-0307             
1 49189U 21083D   25162.93652417  .00000320  00000+0  84176-3 0  9991
2 49189  87.8978  33.8462 0002108  86.8218 273.3152 13.13470071182326
